{"type":"Topology","arcs":[[[7846,835],[-42,46],[-21,62],[-64,50],[-59,4],[-23,20],[-39,87],[2,91],[-42,42],[-6,90],[-33,51],[-35,17],[-34,-57],[-69,55],[-29,70],[-43,32],[-38,-3],[-34,33],[89,5],[-34,37]],[[7292,1567],[136,-18],[13,23],[-45,102],[-33,50],[-32,84],[10,171],[-35,42]],[[7306,2021],[-5,22],[35,36],[14,49],[42,22],[-27,67],[38,30],[10,37],[30,23],[-2,138],[53,23],[40,-17],[-7,-43],[24,-17],[51,24],[18,-32],[76,44],[66,62],[42,8],[19,-29],[40,27],[22,131],[41,38],[56,88],[41,28],[25,64],[-37,65],[17,85],[58,28],[16,61],[-48,70],[-23,11],[18,42],[-39,12],[-72,75],[-64,148]],[[7874,3441],[37,-1],[57,21],[45,71],[66,20],[40,-15],[66,20],[88,7],[60,23],[29,54],[-56,44],[7,13],[88,16],[48,38],[79,-8],[112,-31],[118,-64],[72,-51],[28,-49],[-34,-72],[31,-17],[49,-59],[61,-12],[92,53],[80,21],[88,34],[63,3],[95,-131],[48,-39],[43,-63],[54,-46],[5,-36],[-23,-136],[13,-5]],[[9523,3044],[-52,-109],[-94,2],[-43,-66],[-154,-185],[-213,-195],[-153,-153],[-47,-9],[-87,-78],[-9,-29],[-15,-147],[42,-94],[39,-39],[19,-49],[-19,-51],[-41,-38],[-27,-51],[-32,-168],[-8,-70],[15,-50],[-25,-153],[-20,-53],[-89,-77],[-37,-58],[-6,-39],[-67,-111],[-28,-23],[-6,-39],[-36,-5],[-20,-52],[35,-40],[-2,-26],[-57,-30],[-59,1],[-24,-46],[-9,-52],[14,-33],[-72,-31],[-37,15],[22,58],[-73,-20],[-30,13],[-35,57],[-57,42],[-41,57],[-39,15]],[[6028,5962],[-57,22],[-158,-2]],[[5813,5982],[-61,0],[-7,175],[2,234],[16,137],[-13,13],[7,602],[319,-2],[287,-222],[224,318]],[[6587,7237],[183,27],[47,46],[101,27],[46,3],[65,-84],[43,-29]],[[7072,7227],[-79,-37],[-111,-249],[8,-390],[-4,-30],[-134,-258],[-110,-121],[-53,-69],[-21,-48],[-133,-33],[-193,-22],[-13,-38],[-57,-5],[-5,34],[-62,-5],[-77,6]],[[2517,2937],[-66,30],[-108,30]],[[2343,2997],[13,100],[-21,18],[-58,-8],[-39,15],[-35,-16],[-49,41],[-28,-2],[-50,22],[-8,28],[97,57],[11,36],[-26,34],[-62,12],[-108,-66],[-41,19],[-25,63],[59,53],[-7,39],[-153,4],[-5,14],[-94,-16],[-70,2],[-563,1],[-28,-29],[15,-31],[-84,-4],[-56,20],[-11,27],[-84,22],[-18,17],[-48,-54],[-1,-58],[-62,-61],[11,-64],[-36,-26],[-118,-21],[-193,3],[-1,15],[-96,-1],[-2,-53],[-36,-36],[-37,-6],[-54,24],[-79,-13],[-46,10]],[[17,3128],[13,29],[-19,40],[60,82],[-21,84],[34,65],[36,31],[13,84],[-82,31],[-7,32],[25,70],[-13,116],[-41,57],[0,35],[48,50],[17,100],[-7,208],[-15,134],[-8,189],[-16,190],[37,263],[-4,44],[-39,55]],[[28,5117],[90,75],[24,54],[39,12],[25,-25],[96,-29],[-27,-33],[-10,-47],[7,-126],[44,-16],[4,-71],[58,52],[28,90],[5,61],[37,-28],[19,-57],[-13,-97],[-27,-36],[6,-51],[-14,-53],[-25,-19],[48,-79],[81,-52],[17,-41],[-11,-22],[19,-52],[102,-87],[39,-12],[104,-9],[70,-71],[25,2],[36,68],[50,55],[-4,45],[18,38],[71,49],[29,-32],[-10,-31],[54,-79],[60,65],[234,11],[-1,-52],[19,-34],[-2,-123],[62,-1],[1,-100],[24,-40],[-4,-31],[24,-59],[-18,-26],[-76,-35],[5,-23],[292,4],[37,37],[56,27],[57,14],[60,-7]],[[1962,4090],[116,53],[21,-121],[17,-52],[29,-3],[70,59],[42,3],[99,-45],[10,-92],[35,-20],[33,31],[91,-15],[38,44],[86,1],[46,11]],[[2695,3944],[-64,-51],[-11,-52],[1,-99],[-15,-69],[-94,-54],[-81,-59],[-47,-70],[-8,-112],[61,-32],[39,-7],[52,-141],[66,132],[41,50],[27,7],[20,-46],[-17,-109],[21,-60],[-55,12],[-6,-69],[-35,-61],[89,-60],[-4,-45],[-33,-53],[-35,20],[-90,21]],[[28,5117],[-28,77],[49,289],[37,141],[-36,71],[-26,99],[16,140],[44,54],[15,82],[-14,23],[5,57]],[[90,6150],[64,50],[167,2],[131,141],[126,57],[84,83],[104,-37],[62,31],[149,55],[193,123],[105,40],[-6,61],[31,5],[104,-9],[41,28],[32,44],[15,105],[23,37],[78,51],[52,9],[82,-22],[33,-35],[38,-101],[26,-42],[31,-20],[279,-92],[60,-5],[52,36],[36,8],[26,-24],[-19,-55],[-89,-59],[-52,-57],[-36,-64],[-7,-90],[27,-104],[195,-413],[61,-125],[125,-133],[19,-63],[2,-71],[14,-36],[89,-53]],[[2637,5406],[-16,-105],[-30,-28],[-56,-26],[-53,-2],[-23,-18],[-13,-54],[-50,7],[-37,-68],[-15,49],[-45,74],[-73,52],[-57,-21],[-2,-36],[-60,-30],[16,-59],[-79,-28],[-42,0],[-25,20],[-32,-55],[-8,-93],[11,-74],[-14,-60],[35,-64],[64,-32],[21,-43],[-7,-130],[-21,-157],[-32,-58],[28,-40],[-8,-59],[-44,-42],[-22,-54],[-8,-63],[22,-19]],[[2015,12827],[3,200],[-3,113],[23,12],[126,32],[78,60],[150,160],[71,30],[137,40],[133,30],[100,50],[131,15],[102,18],[49,-51],[58,-16],[78,2],[102,23],[141,-14],[37,-9],[108,29],[97,111],[142,53],[110,21],[143,-71],[106,-37],[166,-66],[48,-7],[120,-49],[185,-61],[112,-53],[108,41],[90,8],[124,-74],[25,-23],[83,-30],[47,-31],[89,-130],[91,-92],[42,-60],[84,-85],[32,-43],[18,-46],[6,-61],[56,-106]],[[5763,12660],[-69,-20],[-78,21],[-7,-37],[-36,-21],[-107,-100],[-42,14],[-32,29],[-11,99],[-17,14],[-65,-21],[-19,59],[-65,-42],[-61,12],[-45,60],[-38,4],[-59,-31],[4,-35],[-45,-1],[-54,-49],[-202,-100],[12,-92],[-16,-41],[-54,-27],[5,-56],[35,-137],[-14,-50],[-88,8],[-20,26],[-90,68],[-44,-14],[-55,42],[-111,-19],[-73,55],[-67,25],[-65,-112],[86,-50],[52,-79],[11,-35],[-23,-82],[64,-16],[7,-99],[-16,-92],[27,-55],[41,-56],[10,-37],[-31,-85],[-83,-3],[-54,38],[-121,4],[-36,-112],[-31,-18],[-70,-11],[-43,129],[-59,3],[-17,-30],[-51,31],[-52,14],[-98,-35],[-114,-21],[-46,-44],[-36,-1],[-53,18],[-94,5],[-63,19],[-3,-118],[-106,-3],[-19,-100],[18,-59],[-19,-101],[14,-27],[-6,-137],[109,-74],[-35,-130],[30,-84]],[[3160,10658],[-58,-32],[-78,62],[-58,8],[-48,-27],[-53,-56],[-48,-11],[-42,-35],[-45,7],[-16,-22],[-53,-3],[-22,-31],[-34,2],[2,-53],[32,-34],[-39,-19],[-27,-43],[-146,120],[11,81],[-73,63],[-9,46],[37,14],[58,-66],[103,64],[55,57],[4,138],[22,39],[29,171],[-18,51],[-32,33],[5,164],[-5,102],[34,70],[23,20],[-10,60],[62,63],[86,-47],[26,-51],[62,-1],[-5,82],[27,69],[48,22],[-11,39],[-1,90],[-88,138],[-3,43],[56,125],[51,21],[1,22],[-93,105],[-40,21],[-73,74],[24,56],[66,72],[-58,42],[-85,-12],[-154,95],[-22,33],[-42,30],[-53,17],[-78,12],[-104,84],[-122,5],[-49,-13],[-74,-7]],[[5763,12660],[19,-35],[179,-158],[166,-3]],[[6127,12464],[-3,-49],[24,-102],[0,-113],[-8,-101],[-101,-95],[78,-21],[10,-102],[0,-68],[24,-183],[23,-91],[12,-93],[80,-73],[9,-66],[-16,-55],[-25,-32],[30,-131],[83,-64],[4,-34],[50,-45],[-28,-27],[-49,-10],[-71,7],[8,-44],[-7,-45],[-58,-41],[-36,-4],[-21,-40],[-25,1],[-35,36],[-94,-19],[-57,-24],[-33,-35],[-7,-79],[-37,-91],[-1,-67],[70,-60],[-12,-69],[16,-43],[-28,-62],[3,-68]],[[5899,10162],[-14,-24],[-65,-22],[9,-47],[-14,-16],[-83,18],[-5,-69],[-89,-47],[-20,-50],[-6,-75],[3,-85],[-43,-57],[-72,-8],[-40,-36],[-61,38],[-32,-6],[-104,-51],[-25,28],[-39,9],[-37,-23],[-39,5],[-47,-26],[-35,-57],[-17,4]],[[5024,9565],[-34,32],[-48,24],[-64,54],[-71,26],[-93,-10],[-42,92],[-1,28]],[[4671,9811],[14,48],[61,-11],[52,28],[16,34],[-12,40],[38,86],[77,55],[-22,36],[41,35],[-175,7],[-37,17],[-33,61],[-29,28],[-58,6],[-48,-44],[-61,6],[-65,-11],[-25,16],[-3,78],[-11,24],[1,64],[18,45],[-15,81],[-55,51],[-106,5],[-49,-37],[-126,20],[-23,12],[-31,-26],[-63,-14],[-52,24],[-28,51],[-51,-8],[-39,9],[-56,43],[-29,73],[-29,-23],[-61,0],[-19,-27],[-78,52],[-7,-68],[-68,-22],[-37,13],[-72,-26],[-72,40],[-84,-24]],[[2343,2997],[-243,30],[-187,36],[-221,28],[-117,2],[-138,-16],[-278,-7],[-122,4],[-40,-34],[-202,7],[-468,-12],[-149,-7],[-168,-21],[7,121]],[[7846,835],[49,-72],[-12,-46],[17,-14],[22,-100],[-4,-39],[26,-83],[-72,-86],[-64,-17],[-101,14],[-209,-2],[-262,-28],[-244,-40],[-74,-39],[-49,58],[-39,16],[-34,43],[24,27],[3,23],[-34,65],[2,76],[16,23]],[[6807,614],[10,43],[-15,55],[-31,24],[3,31],[-23,30]],[[6751,797],[5,44],[-26,34],[0,72],[16,16],[-44,48],[64,51],[57,106],[-17,30],[-9,67],[15,45],[7,102],[17,68],[23,26],[70,-9],[38,10],[30,38],[-13,22],[-51,-4],[-4,34],[24,60],[30,25],[56,-17],[15,110],[53,5],[44,-66],[12,-37],[46,-30],[62,-7],[26,-48],[-5,-25]],[[3874,1234],[29,-25],[-7,-27],[66,-13],[56,-47],[47,-1],[68,-52],[47,14],[62,-6],[28,43],[68,5],[18,40],[68,-4],[41,-17],[23,41],[41,12],[18,75],[26,5],[82,-86],[32,-12],[49,11],[11,54],[39,13],[45,-30],[51,46],[35,-4],[16,30],[-11,53],[27,31],[65,-15],[47,16],[-9,62],[28,29],[57,25],[87,-22],[58,32],[56,-5],[17,22],[-24,57]],[[5331,1584],[108,0],[11,-10],[-9,-74],[-46,-51],[9,-28],[41,-40],[-19,-15],[1,-52],[-85,-38],[-28,-50],[-88,-196],[38,-35],[4,-34],[-59,-112],[5,-53],[62,-139],[46,-23],[68,56],[73,7],[40,-17],[-20,-34],[-46,-35],[-68,-78],[6,-30],[45,-51],[-12,-14],[28,-51],[-21,-11],[-7,-46],[-39,-99],[0,-74],[11,-27],[34,-9],[7,-42]],[[5421,79],[-119,-15],[-17,-23],[-57,9],[-221,-22],[-30,13],[37,85],[31,24],[-16,23],[-42,-44],[-27,-6],[-10,-37],[9,-73],[-187,-13],[-42,26],[-113,34],[-19,32],[-75,36],[-95,61],[-12,18],[-189,146],[-90,116],[-132,189],[-21,60],[-61,103],[-56,112],[-3,75],[-25,69],[-68,146],[37,16],[66,-5]],[[2695,3944],[6,70],[29,48],[54,38],[15,40],[27,-9],[25,47],[36,40],[-17,87],[28,110],[174,26],[92,-13],[65,11],[21,52]],[[3250,4491],[62,62],[237,-33],[145,10],[37,-86],[16,-122],[42,-18],[163,47],[24,24],[110,168],[15,49],[4,75],[16,65],[43,66],[36,-7],[20,68],[30,42],[80,66]],[[4330,4967],[61,-28],[58,4],[87,28],[3,-48],[22,-97],[83,-127],[11,-43]],[[4655,4656],[-40,1],[-30,-21],[-9,-40],[21,-39],[34,-27],[-26,-38],[25,-85],[-94,-26],[6,-58],[-39,-55],[10,-58],[-27,-25],[-41,-148],[-55,-35],[-28,-68],[-14,-80],[20,-67],[-18,-71],[-25,-45],[12,-32],[-28,-47],[-45,-22],[-33,-47],[-50,-13],[-38,28],[-28,-7],[-61,-54],[-21,37],[2,46],[-28,89],[39,30],[-1,34],[-47,22],[-372,5],[-24,-8],[-65,-103],[-17,-52],[-65,-40],[-40,-68],[-15,-97],[36,-75],[38,-34],[-15,-76],[-71,-91],[9,-34],[-47,-52],[-32,10],[-36,-56],[10,-17],[-27,-58],[68,-63],[36,-68],[65,-20],[-2,-25]],[[3432,2713],[-47,-64],[-35,-66],[-86,-192],[-53,-80]],[[3211,2311],[-40,52],[-141,148],[-63,51],[-76,82],[-80,57],[-109,106],[-76,59],[-109,71]],[[3874,1234],[-38,26],[-47,-19],[-50,41],[-10,91],[-36,176],[45,13],[47,-4],[115,15],[84,51],[-28,52],[-49,-63],[-58,-20],[-107,6],[-133,56],[-73,55],[-72,100],[9,25],[62,63],[112,2],[86,-22],[64,5],[-9,28],[-51,-17],[-70,26],[-103,7],[-52,-33],[-30,-3],[-68,70],[-52,100],[-23,77],[-38,23],[-21,50],[-69,100]],[[3432,2713],[16,-40],[32,32],[69,-40],[23,-33],[1,-57],[47,-29],[-27,-97],[11,-53],[27,-58],[41,15],[76,75],[-32,21],[-12,48],[120,5],[42,28],[32,-19],[66,10],[34,-64],[48,1],[48,46],[73,14],[17,27],[177,-103],[24,6],[30,-61],[123,-91],[-20,-48],[-1,-105],[26,-31],[80,-1],[48,23],[34,1],[87,55],[27,52],[44,26],[92,84],[40,78],[15,65],[-34,24],[15,28],[-67,2],[-37,40],[-49,76],[-26,92],[-5,58],[-39,33],[5,78],[54,54],[57,-35],[64,-75],[58,57],[39,55],[107,38],[77,17],[46,42],[80,55],[30,34],[120,17],[52,-16],[32,18]],[[5589,3187],[44,-171],[18,-40],[14,-126],[28,-80],[37,-59],[-19,-68],[-72,-56],[-2,-43],[32,-15],[-2,-40],[-34,-119],[-37,-57],[-32,-103],[-17,-111],[-54,-47],[2,-27]],[[5495,2025],[27,-65],[-24,-39],[-27,-76],[-59,-18],[-17,-25],[10,-80],[-19,-53],[-58,-26],[3,-59]],[[6807,614],[-25,-29],[0,-66],[12,-44],[24,-39],[-31,-30],[16,-41],[35,-33],[45,-19],[-13,-56],[-130,-2],[-97,-25],[-120,18],[-7,-39],[-158,-52],[-118,8],[4,35],[82,103],[34,55],[-1,34],[-37,93],[-34,-87],[16,-28],[-26,-94],[-161,-39],[-28,7],[-38,175],[1,62],[-32,-14],[13,-119],[-13,-15],[22,-48],[14,-73],[34,-42],[-28,-28],[-67,5],[-140,36],[24,-59],[-158,-15],[-64,5],[-2,95],[-23,87],[2,48],[44,88],[-18,8],[-41,-85],[14,-142],[-9,-43],[18,-72],[-17,-13],[-204,-6]],[[5495,2025],[72,-9],[22,12]],[[5589,2028],[-42,-281],[108,-6],[36,7],[4,-64],[26,-55],[-10,-124],[21,-33],[80,-69],[30,-4],[78,-43],[116,21],[75,22],[116,-47],[60,-6],[93,-26],[46,31]],[[6426,1351],[40,-62],[-20,-80],[-32,-56],[-20,-119],[-46,-54],[-57,-16],[-37,-62],[20,-26],[60,-31],[36,-5],[66,21],[114,-1],[45,-14],[45,6],[42,-30],[69,-25]],[[90,6150],[-19,279],[3,35],[53,316],[17,58],[27,12],[128,20],[88,3],[28,-29],[151,42],[100,303],[1,90],[-36,108],[42,79],[47,50],[113,150],[95,95],[-31,75],[15,75],[35,42],[148,26],[75,-16],[48,51],[71,97],[93,222],[12,76]],[[1394,8409],[65,-126],[28,0],[29,-30],[39,34],[48,-35],[44,5],[37,-49],[-5,-40],[48,17],[39,-12],[-11,-42],[41,-19],[-50,-30],[16,-28],[79,-2],[28,-71],[23,11],[63,-19],[17,38],[81,-23],[25,-60],[157,-179],[95,-152],[52,-37],[79,-75],[81,-99],[109,-75],[44,-38],[10,-44],[31,-32],[138,-56],[24,-30],[-3,-97],[17,-43],[30,-21],[60,-2],[81,48],[35,6],[121,51],[72,-28],[24,-36],[132,-80],[70,-102],[41,-24],[48,-5],[72,-32],[66,5],[29,-19],[94,-20],[22,-30],[54,-5],[39,-20],[33,-45],[54,-31],[57,-59],[121,-23],[65,-95],[30,-16],[128,7],[58,-6],[148,23],[72,3],[66,-13],[25,-44],[83,16]],[[4942,6374],[-54,-99],[-31,-95],[-32,-58],[-20,-178],[-46,-48],[-53,-7],[-118,23],[-63,22],[-88,-3],[-93,8],[-197,50],[-167,106],[-30,-3],[-37,-50],[-112,-88],[-77,-90],[-29,-49],[45,-44],[5,-51],[57,25],[29,-11],[1,-69],[54,-42],[53,12],[59,-13],[0,-70],[-55,-66]],[[3943,5486],[-155,-12],[-33,-17],[-5,-74],[-39,-41],[-70,-2],[-73,19],[-49,-5],[-20,26],[-56,36],[-34,2],[-47,-55],[-38,21]],[[3324,5384],[-25,47],[-62,-61],[-35,5],[-61,67],[-103,23],[5,-33],[-55,-27],[-46,21],[-91,-6],[-78,-30],[-39,15],[-22,31],[-75,-30]],[[6028,5962],[-16,-75],[-49,-129],[42,-51],[11,-58],[42,-82],[-27,-74],[5,-54],[-22,-68],[10,-63],[-36,-97],[15,-55],[154,90],[254,104],[196,41],[158,5],[110,-14],[131,-33]],[[7006,5349],[-18,-114],[8,-71],[32,-66],[73,-100],[11,-35],[3,-138],[-42,-39],[16,-30],[2,-86],[26,-13],[7,-112],[22,-46],[32,-26],[5,-53],[-48,-89],[46,-13],[-6,-85],[-25,-35],[-86,-36],[-38,12],[-67,-48],[-9,-37],[-49,-60],[13,-91],[-26,-13],[-69,32],[-19,-11]],[[6800,3946],[-40,52],[-62,39],[-36,8],[-64,-22],[-3,-50],[-81,-39],[-21,-27],[-99,-48],[-4,-43],[-40,-54],[-48,-10],[-41,-46],[-38,-23],[-54,-69],[-55,-24],[-72,3],[-6,84],[-33,0],[-15,-52],[-78,-22],[-27,-45],[-24,-11]],[[5859,3547],[-77,-72],[-10,-33],[14,-91],[-1,-51],[-62,-24],[-68,-4],[-61,10],[-15,-14]],[[5579,3268],[-12,109],[-35,58],[-14,43],[19,92],[-30,75],[88,163],[9,47],[-3,93],[48,101],[6,44],[-32,116],[-33,33],[-45,78],[-96,-27],[-76,-12],[-22,36],[0,50],[-46,54],[-44,-8],[-16,83],[-62,-28],[-32,24],[-87,121],[-44,-28],[-52,-13],[-56,-46],[-62,16],[-43,-2],[-6,60],[65,46],[14,40],[-43,2],[-21,56],[-99,-16],[-62,-72]],[[4330,4967],[26,50],[-33,8],[-55,58],[-121,0],[-40,53],[-22,123],[66,16],[3,33],[28,23],[-39,74],[23,30],[-112,-5],[-96,-77],[-6,9],[14,125],[-23,-1]],[[4942,6374],[83,9],[49,-15],[79,-62],[56,-79],[37,-114],[40,-144],[71,-52],[33,-52],[34,-9],[40,-56],[27,-9],[39,-52],[21,-46],[59,-61],[41,-15],[7,59],[61,42],[16,89],[49,11],[42,77],[-18,51],[5,36]],[[7874,3441],[-22,27],[-32,97],[-21,38],[-29,-19],[-67,-8],[-28,-27],[-12,-42],[-64,-26],[-94,36],[-81,-30],[6,-90],[12,-53],[-45,-40],[-14,-62],[-94,31],[-31,28],[-54,81]],[[7204,3382],[54,89],[31,86],[35,30],[-23,18],[2,86],[-35,37],[-63,17],[-147,-30],[-31,-27],[-48,23],[-53,73],[-59,19],[-67,143]],[[7006,5349],[118,-16],[109,-26],[41,1],[148,-67],[140,-88],[58,-19],[65,-6],[78,-36],[83,-29],[137,-63],[68,6],[-44,169],[-58,50],[-11,47],[29,2],[15,120],[28,46],[50,48],[108,66],[29,-1],[90,-41],[152,-46],[118,-30],[184,-28],[160,10],[53,16],[98,-118],[66,-119]],[[9118,5197],[5,-18],[-82,-98],[-13,-27],[21,-29],[84,32],[116,18],[59,17],[101,14],[246,-8],[56,-13],[59,-43],[82,-128],[64,-79],[139,-115],[54,-95],[6,-66],[-8,-68],[-59,-192],[-23,-36],[15,-53],[-16,-64],[-121,-135],[-54,-95],[-76,-167],[-6,-40],[11,-96],[-4,-87],[-33,-106],[-23,-132],[-12,-103]],[[9706,3185],[-102,-100],[-81,-41]],[[12852,8234],[-65,7],[-75,112],[-7,37],[-50,63],[-79,22],[-39,24],[1,42],[-32,48],[-61,26],[-2,61],[11,36],[62,37],[8,47],[74,41],[11,58],[-36,31],[-53,22],[-38,55],[15,31]],[[12497,9034],[61,12],[123,45],[56,41],[18,61],[-10,109],[-30,58],[-129,17],[-20,33],[26,33],[36,-5],[80,34],[92,53],[79,-4],[55,34],[19,-28],[42,12],[79,63],[58,74],[30,7],[53,-14],[76,11],[27,47],[-20,57],[-46,30],[-26,139],[15,32],[104,60],[21,78],[27,3],[36,58],[137,114],[42,101],[-35,48],[-69,36],[2,52],[-37,70],[-72,-87],[-39,35],[28,83],[8,58],[20,16],[12,60],[37,24],[-20,85],[9,72],[25,85],[-17,13],[-43,121],[-2,68],[38,59],[-19,49],[49,77],[3,226],[93,50],[34,86],[58,6],[35,53],[-22,59],[52,16],[45,73],[1,143],[-18,52],[-34,18],[-41,54],[-31,11],[-1,40],[-20,41],[29,98],[-9,55],[30,71]],[[13687,12575],[41,-10],[53,67],[16,38],[61,32],[-24,64],[44,31],[34,42],[1,36],[49,-6],[44,17],[17,-25],[48,66],[51,10],[47,96],[36,14],[111,117],[71,16],[124,53],[46,6],[42,-24],[37,27],[107,-3],[19,-35],[45,89],[35,31],[-11,24],[36,45],[78,62],[20,46],[33,-19],[381,1],[181,-256],[255,-360],[196,-277],[97,-447],[72,-332],[-4,-48],[-32,-34],[14,-107],[57,-62],[59,13],[61,-16],[28,19],[60,-20],[34,11],[89,-10],[44,-39],[39,-52],[35,-23],[16,-35],[-10,-30],[52,-8],[40,-62],[59,17],[25,-54],[-35,-33],[5,-30],[-28,-35],[24,-40],[-41,-19],[-1,-28],[43,-107],[-27,-29],[12,-34],[-54,-60],[11,-63],[-34,-101],[0,-89],[74,-65],[8,-102],[-51,-109],[-202,-118],[-79,-18],[-114,-93],[-198,-136],[-58,-11],[-170,61],[-32,6],[-53,-48],[-25,-49],[-81,-88],[-65,-98],[-47,-47],[-22,-65],[-29,-39],[-9,-68],[-25,-25]],[[15543,9491],[-113,44],[-130,5],[-106,-54],[-54,-11],[-74,-32],[-39,-3],[-22,66],[-44,-24],[-1,-154],[-34,-124],[-40,-65],[-35,-80],[-26,-16],[-9,-60],[28,-26],[-35,-138],[-52,-49],[-97,49],[-99,30],[-51,43],[-7,27],[-73,49],[-117,36],[-197,4],[-86,-130],[-30,-66],[-56,13],[-14,52],[-45,-4],[-23,-77],[4,-46],[-75,-23],[-116,-11],[-59,-30],[10,-48],[-81,4],[-32,23],[-37,-10],[-32,44],[-21,-58],[-41,-55],[-48,-13],[-60,-50],[-13,-47],[-25,-24],[-28,-63],[3,-59],[14,-39],[-20,-19],[-74,-4],[-22,13],[-41,-42],[-97,-19],[-119,14]],[[6127,12464],[55,0],[80,68],[100,118],[226,-37],[432,255],[101,46],[86,60],[310,-44],[115,-26],[27,-32],[119,-82],[86,-36],[171,-157],[57,-15],[94,8],[36,-12],[103,-76],[68,-112],[410,-126],[47,-27],[73,14]],[[8923,12251],[9,-43],[-90,-13],[-45,-98],[-39,-45],[-56,-15],[-26,-39],[-58,8],[-142,-7],[-83,80],[-38,16],[-46,0],[-21,102],[-52,33],[-70,3],[-94,-26],[-57,16],[-59,-2],[-21,15],[-151,-14],[-72,-21],[-38,11],[15,-79],[31,-44],[-57,-16],[23,-78],[30,-22],[12,-39],[65,-22],[13,-21]],[[7806,11891],[-91,-46],[-10,-61],[13,-18],[-29,-46],[-8,-49],[-38,1],[-31,-35],[-74,1],[-35,-31],[-39,-3],[-22,-29],[-52,-20],[-39,-32],[-42,-9],[-10,-45],[-29,-26],[19,-39],[-19,-62],[-13,-90],[14,-10],[4,-82],[16,-54],[-34,-63],[-37,-46],[1,-66],[26,-51],[24,-19],[-18,-53],[12,-106],[23,-72],[15,-6],[20,-77],[-42,7],[-44,-36],[-38,7],[-67,-13],[-87,-52],[20,-33],[-11,-29],[-44,-36],[-6,-58],[43,-82],[59,-55],[4,-23]],[[7110,10144],[-42,-2],[0,-64],[-21,-21],[-139,-55],[-42,62],[-114,52],[-33,35],[-113,-2],[-31,-59],[-18,-99],[-84,14],[-99,7],[-46,-30],[24,-79],[-15,-70],[-69,-35],[-32,13],[-74,82],[-72,20],[-81,51],[58,69],[7,80],[-11,18],[-63,-5],[-59,38],[-42,-2]],[[9733,5859],[-22,30],[-59,13],[-125,42],[-126,67],[-36,7],[-48,-19],[-80,-14],[-73,-4],[-52,15],[-60,-56],[-44,15],[0,50],[-58,33],[-15,32],[-42,-14],[-40,17],[-22,28],[17,34],[-13,58],[-28,10],[-33,79],[-29,26],[-31,67],[22,72],[53,23],[6,52],[34,26],[52,0],[18,17],[31,81],[37,32],[-2,61],[-19,52],[-25,4],[-102,-17],[-60,1],[-104,21],[-73,2],[2,56],[-55,49],[6,86],[-22,18],[-115,17],[-13,25]],[[8385,7053],[51,164],[2,80],[-37,26],[-29,-1],[-44,56],[-21,68],[-35,24],[-30,78],[-2,38],[38,136],[24,4],[0,70],[49,39],[14,29],[0,85],[-13,46],[64,197],[-11,110],[0,92],[20,93],[59,53],[8,38],[41,9],[51,31],[8,75],[18,36]],[[8610,8729],[73,-33],[92,-13],[27,-57],[-27,-59],[-7,-75],[67,-49],[-14,-111],[-23,-14],[-18,-86],[54,-65],[36,2],[6,63],[40,-24],[70,13],[60,48],[77,-29],[66,14],[30,-34],[-52,-10],[25,-222],[56,-23],[-16,-39],[-59,-65],[-83,-21],[26,-43],[64,-65],[61,-3],[29,17],[3,-112],[28,-22],[-8,-39],[66,-56],[65,-2],[40,-77],[202,-6],[29,55],[-17,45],[45,7],[54,-36],[28,18],[34,-18],[100,25],[56,56],[50,32],[108,13],[28,-8],[63,26],[16,32],[-27,77],[16,19],[81,25],[87,-16],[17,-36],[51,-22],[55,15],[98,-3],[171,-127],[58,-19],[92,-46],[48,-92],[25,-7]],[[11032,7447],[35,-26],[18,-37],[-1,-42],[-25,-29],[-1,-55],[26,-26],[3,-124],[43,-81],[10,-68],[26,-32],[-20,-36],[22,-18],[-15,-89],[-43,-61],[-43,-10],[-144,-9],[-61,-27],[-111,-92],[-23,-33],[-107,-69],[-85,-86],[-11,-23],[-90,-85],[-91,-116],[-185,-161],[-41,-44],[-98,-64],[-91,-51],[-129,22],[-62,1],[-5,-17]],[[5579,3268],[10,-81]],[[8923,12251],[58,-17],[120,0],[280,-19],[90,3],[63,-13],[114,-1],[110,-15],[38,44]],[[9796,12233],[27,-18],[118,-35],[131,34],[54,46],[47,94],[82,54],[155,42],[71,3],[36,21],[70,18],[81,-51],[-25,-35],[11,-54],[24,-16],[1,-43],[21,-21],[-20,-65],[49,-6],[8,52],[76,-9],[67,-31],[59,-42],[53,42],[35,6],[44,-54],[21,-106],[21,-8],[-3,-61],[-20,-5],[20,-62],[8,-74],[-21,-32],[15,-29]],[[11112,11788],[11,-47],[-48,-19],[-24,7],[-59,-18],[-76,-39],[-41,22],[-68,11],[-59,-32],[-114,26],[-25,-37],[20,-61],[-66,-53],[-16,-61],[-68,-104],[5,-52],[27,-53],[-18,-51],[-7,-56],[31,-63],[-28,-33],[-76,-9],[-29,-28],[-60,-32],[-29,11],[-188,-70],[-70,-61],[-176,-58],[-48,13],[3,-66],[-9,-41],[-37,-12],[-34,-38],[29,-23],[102,-18],[95,23],[31,-65],[27,-28],[10,-53],[-16,-43],[20,-91],[-61,-51],[-4,-52],[23,-36],[77,32],[31,-25],[11,-60],[-1,-71],[47,-13],[-6,-44],[38,-4],[23,-39],[57,-31],[121,7],[53,-32],[95,-36],[64,3],[62,-30],[111,7],[9,-41],[-41,-51],[-64,-33],[-29,-47],[-30,-12],[-30,21],[-53,-18],[-28,-33],[-22,-64],[22,-35],[50,-19],[22,-41],[-67,-7],[-54,8],[-32,21],[1,43],[-34,-4],[-59,-34],[-50,6],[-35,-17],[-79,48],[-67,-4],[-26,25],[-11,100],[47,25],[-15,55],[7,45],[-13,32],[-45,62],[-24,70],[-64,-25],[-23,-22],[-49,7],[-62,-41],[-124,36],[4,65],[15,32],[-137,-3],[-20,-50],[-47,5],[-74,26],[-45,45],[-39,17],[-91,9],[-129,-33]],[[9140,10080],[38,68],[15,45],[-4,57],[25,17],[51,65],[65,20],[42,63],[-46,23],[-121,98],[-11,25],[18,56],[-29,48],[-32,-8],[-52,-34],[-12,50],[-22,25],[3,96],[61,12],[16,38],[44,48],[-39,14],[7,74],[29,83],[-41,97],[-59,-21],[-16,-41],[-66,-23],[-19,6],[-15,66],[-123,-4],[-12,19],[-45,-16],[-44,5],[33,54],[20,102],[-60,165],[-99,10],[-33,-8],[-39,-36],[-42,23],[-49,2],[40,49],[40,18],[21,58],[-44,54],[-76,-6],[-20,39],[-11,57],[24,28],[20,92],[-103,-10],[-7,47],[-119,14],[-137,-22],[-100,-167],[-15,-50],[-26,4],[-5,59],[-61,40],[-32,132],[-60,-8]],[[5859,3547],[69,-81],[65,19],[85,-5],[48,-34],[27,4],[83,-37],[4,-23],[-32,-71],[-85,-94],[1,-76],[-24,-46],[80,-23],[37,-35],[40,-19],[-3,-41],[26,-81],[-25,-20],[11,-86],[55,15],[48,-68],[8,-92],[36,-32],[9,-36],[68,-1],[-8,-49],[49,-4]],[[6531,2531],[-29,-62],[-64,-1],[-26,-47],[9,-37]],[[6421,2384],[-64,-12],[-40,-44],[-53,24],[-125,21],[-87,-44],[-70,-88],[-82,-47],[-10,-78],[-15,-10],[-87,62],[-83,-55],[-52,17],[-27,-21],[-5,-67],[-32,-14]],[[9140,10080],[-47,-17],[-27,17],[-81,-16],[-31,-32],[-51,-22],[-12,-25],[-92,-93],[-38,-21],[-45,-90],[-52,-27],[-54,-2],[-33,-40],[-21,-82],[14,-91],[-42,-35],[-20,-94],[29,-9],[28,-77],[50,-40],[47,-88],[-10,-40],[-37,-11],[-54,-107]],[[8561,9038],[-47,-46],[-54,-31],[-63,72],[-24,44],[-78,30],[-71,-19],[-52,26],[-35,94],[127,46],[-12,97],[31,65],[-19,86],[38,115],[22,22],[-10,76],[-18,17],[-105,46],[-19,25],[4,37],[-67,19],[-39,78],[-153,1],[-38,10],[-17,49],[-40,16],[-12,66],[-59,-10],[-80,81],[-38,16],[-13,31],[42,17],[-4,52],[30,70],[-17,19],[-89,-2],[-7,-17],[-57,-27],[-57,8],[-82,-42],[-59,-45],[-30,-65],[-73,-23],[-87,14],[-20,-12]],[[7072,7227],[97,-77],[22,-4],[90,25],[65,39],[31,-5],[169,-69],[37,-50],[-23,-108],[-13,-147],[52,-18],[55,-5],[76,24],[57,74],[30,61],[6,51],[60,8],[39,-11],[24,19],[59,-26],[83,-90],[38,-57],[43,-102],[41,4],[43,40],[0,28],[80,90],[41,83],[11,49]],[[9733,5859],[-7,-31],[8,-67],[-11,-17],[-88,20],[-90,1],[-131,62],[-38,-12],[-29,-82],[-24,-28],[6,-39],[86,-50],[30,-35],[-35,-40],[8,-68],[32,-56],[-16,-24],[-82,-62],[-15,-24],[-219,-110]],[[4671,9811],[-53,41],[-89,-31],[-24,-45],[-137,-44],[-35,-33],[-65,-88],[-69,-32],[-61,-15],[-72,2],[-39,-27],[-30,21],[-19,40],[-31,-22],[-75,12],[-51,30],[-31,47],[-3,78],[24,79],[-20,37],[-1,83],[-13,17],[-44,137],[-21,25],[-118,-67],[-7,-93],[-16,-38],[-67,14],[-160,14],[-37,51],[-40,-31],[-29,47],[-53,121],[-28,-7],[-57,33],[-43,-42],[-79,-25],[-32,-22],[-108,-40],[-11,-42],[49,-24],[-50,-32],[42,-55],[18,-60],[80,-48],[52,-1],[52,-31],[45,-14],[100,-2],[23,-38],[62,-3],[32,-57],[26,-88],[-9,-50],[-70,-36],[5,-44],[25,-49],[52,-11],[36,-31],[-12,-49],[-74,-35],[-30,19],[-19,-34],[-82,-29],[-8,-21],[-58,-2],[-20,24],[-70,-11],[-26,13],[-41,-113],[39,-49],[-8,-125],[49,-67],[74,-9],[37,-21],[25,-71],[-5,-149],[-105,-96],[-109,61],[-137,-30],[-71,-50],[5,-34],[-35,-112],[-133,-3],[-4,60],[56,115],[-10,64],[-26,27],[-71,39],[-16,153],[8,69],[35,94],[105,41],[104,93],[45,48],[-5,44],[14,36],[-1,102],[33,99],[-6,44],[-29,41],[-30,-2],[-31,-30],[-73,-11],[-85,44],[-125,-48],[-61,-13],[-37,4],[-59,34],[-13,68],[-74,4],[-29,52],[15,50],[-58,-9],[-59,8],[-117,2],[-151,-14],[-85,-105],[-183,5],[-46,-38]],[[1514,9499],[-39,61],[-35,82],[20,96],[-25,68],[-61,13],[-98,86],[-50,69],[-48,17],[-63,70],[-15,167],[3,36],[47,99],[4,141],[-4,67],[22,12],[123,30],[33,26],[37,54],[-5,78],[-40,22],[-18,118],[74,96],[-1,49],[-50,131],[-8,68],[35,40],[16,43],[-6,298],[-13,101],[8,61],[21,33],[172,129],[221,152],[214,354],[39,205],[15,60],[-24,96]],[[6421,2384],[34,-30],[157,-25],[-14,-57],[8,-38],[3,-112],[19,-112],[34,-97],[-24,-48],[-12,-61],[-26,-32],[-45,-92],[-48,-59],[1,-26],[-43,-88],[-1,-31],[-34,-91],[-4,-34]],[[12852,8234],[-19,-92],[17,-57],[-36,-76],[-8,-63],[68,-26],[4,-30],[-52,-75],[-58,-48],[-37,2],[-162,-116],[-29,41],[-22,-10],[-50,-63],[-86,4],[-47,-13],[-54,-70]],[[12281,7542],[-213,-3],[-72,31],[-107,-27],[-51,-36],[-54,37],[-95,1],[-43,32],[-12,59]],[[11634,7636],[22,38],[-39,38],[-1,61],[13,58],[22,32],[-51,151],[-123,108],[-46,20],[-51,52],[-100,62],[-8,38],[37,64],[51,24],[36,-4],[26,32],[2,34],[44,61],[16,63],[-61,64],[21,75],[2,49],[-160,129],[-84,2],[-70,93],[-76,63],[6,60],[-48,10],[-44,54],[4,35],[29,22],[68,119],[117,101],[-8,17],[43,54],[-50,43],[26,34],[13,79],[29,10],[26,54],[42,23],[48,-58],[38,34],[156,6],[38,11],[100,76],[-38,42]],[[11651,9869],[135,154],[20,-86],[59,-27],[68,-12],[59,-49],[34,27],[38,-16],[93,-12],[46,-89],[53,-31],[52,-48],[93,-115],[22,-44],[-3,-83],[15,-37],[-34,-223],[13,-50],[-15,-75],[4,-53],[49,25],[45,9]],[[15543,9491],[-45,-47],[-17,-49],[-41,-56],[-62,-104],[-84,-97],[-25,-56],[-2,-88],[-49,-246],[-35,-5],[6,-76],[-15,-85],[42,-29],[-14,-61],[-62,4],[7,-45],[-24,-45],[-78,-63],[-110,-15],[-79,-62],[-25,-36],[60,-86],[-17,-47],[-55,-44],[7,-76],[27,-147],[-20,-225],[-37,-73],[-96,-40],[-142,-11],[-36,-16],[-78,-63],[-99,-148],[12,-10],[21,-272],[29,-125],[-24,-100],[-107,-19],[-7,-15],[52,-177],[-3,-136],[-30,-92],[-57,-51],[13,-122],[-100,10],[-34,-85],[-70,-64],[-110,37],[-24,-41],[-93,-13],[-111,0],[-155,-52],[-48,22],[-59,-38],[-16,-44],[-8,-72],[7,-80],[15,-33],[4,-71],[-64,-94],[-12,-36],[0,-92],[18,-75],[-10,-31],[-65,-79],[-28,-50],[-63,-74],[-74,-124],[-15,-35],[-11,-78],[22,-45],[0,-79],[-203,-208],[-61,-53]],[[12876,4458],[-114,139],[-13,75],[5,106],[9,52],[-20,105],[-45,-8],[-131,45],[22,57],[3,95],[-44,24],[-41,49],[-55,-7],[-14,-16],[-38,-109],[-34,-23],[-25,23],[-85,118],[-26,57],[-73,115],[30,65],[39,41],[122,109],[97,109],[77,152],[40,49],[26,80],[44,29],[71,12],[71,62],[20,45],[-6,38],[-46,64],[44,34],[-64,52],[15,32],[44,16],[59,40],[19,151],[43,146],[-58,66],[1,22],[-55,16],[-55,43],[-64,35],[-17,46],[11,77],[-35,71],[13,28],[-24,34],[-31,74],[-69,-6],[-24,22],[-72,13],[7,58],[-14,59],[-78,100],[-37,15],[-20,88]],[[11651,9869],[-50,57],[-28,47],[31,20],[-28,27],[7,44],[-32,22],[15,80],[0,56],[21,70],[-11,73],[16,40],[-18,80],[3,81],[-11,74],[9,83],[-31,73],[-39,2],[-24,38],[-61,44],[-24,81],[26,38],[10,108],[-3,92],[-27,10],[-13,97],[-8,129],[-19,50],[-16,85],[-20,152],[-83,55],[-56,21],[-52,5],[-23,-15]],[[9796,12233],[297,345],[51,53],[50,13],[24,49],[46,30],[216,119],[35,14],[231,44],[178,26],[254,80],[147,20],[120,-3],[137,-25],[125,10],[119,-22],[186,21],[217,8],[84,-5],[229,-69],[55,-20],[133,-32],[99,-28],[106,-54],[159,-91],[74,-54],[79,-28],[119,18],[45,-24],[35,11],[31,-30],[78,-19],[132,-15]],[[6531,2531],[67,-8],[25,-34],[37,-9],[112,22],[28,-22]],[[6800,2480],[-2,-78],[-32,-57],[-1,-41],[31,-20],[-1,-35],[35,-2],[93,-23],[213,-19],[24,-13],[25,-85],[70,-39],[51,-47]],[[3250,4491],[-74,48],[-45,99],[-25,85],[-27,50],[-27,16],[34,99],[7,55],[30,75],[-5,96],[55,76],[57,40],[57,65],[6,40],[31,49]],[[8610,8729],[-50,62],[-47,24],[39,55],[-5,36],[28,87],[-14,45]],[[11634,7636],[-73,-87],[-202,-153],[-219,22],[-108,29]],[[1394,8409],[-11,39],[-45,22],[-88,108],[78,195],[65,52],[32,-1],[87,-52],[36,-7],[27,62],[59,194],[-9,140],[-32,44],[-101,115],[-12,37],[42,112],[-8,30]],[[5024,9565],[-41,-29],[-9,-39],[-31,-24],[-63,-12],[-2,-53],[-57,-16],[-26,-108],[18,-38],[-25,-59],[54,-32],[-32,-105],[27,-22],[-13,-51],[-43,-12],[-2,-34],[93,-30],[23,-84],[-19,-35],[16,-53],[51,-8],[37,14],[27,61],[43,-19],[51,42],[-9,52],[95,86],[28,49],[80,28],[49,31],[42,-30],[-4,-32],[26,-39],[48,17],[18,24],[84,28],[89,-9],[30,13],[-16,67],[117,0],[37,-26],[17,-75],[-9,-49],[48,25],[61,-25],[57,-80],[-43,-143],[16,-30],[61,5],[60,-15],[43,-53],[-7,-37],[-37,-25],[-14,-33],[-55,-25],[-22,-59],[-47,-1],[-51,-57],[-4,-49],[27,-58],[18,2],[53,-43],[159,-7],[57,-23],[46,13],[58,-12],[105,17],[33,-32],[11,-119],[15,-91],[-11,-42],[6,-42],[-27,-39],[-31,15],[-58,-20],[-8,-31],[101,-98],[41,-89],[-101,-90],[25,-62],[-46,-41],[-25,-47],[29,-120],[1,-62],[14,-20],[143,32],[63,-6]],[[7204,3382],[-59,-6],[-78,19],[-41,-12],[18,-45],[1,-41],[30,-26],[22,-94],[14,-155],[-43,-78],[-17,-76],[34,-73],[-10,-160],[-17,-44],[-62,-29],[-9,-23],[17,-54],[50,-55],[5,-36],[-32,-31],[-38,8],[-129,56],[-60,53]],[[12876,4458],[-75,-135],[-49,-18],[-18,-34],[61,-14],[123,-169],[-26,-67],[-143,-117],[-175,-85],[-71,-73],[-46,-102],[40,-38],[7,-50],[-13,-66],[-33,-85],[-52,-66],[-64,-7],[-53,-24],[-29,-100],[-3,-45],[-38,-39],[-64,-23],[-103,-11],[-91,5],[-86,-5],[-34,16],[-30,77],[-15,62],[-31,78],[-4,66],[32,79],[-16,30],[-73,85],[-113,2],[-79,69],[-1,56],[-24,80],[-32,50],[-101,5],[-70,38],[-28,36],[-113,57],[-7,22],[-77,-67],[-66,-206],[-343,-4],[-44,4],[-46,33],[-22,46],[-3,65],[-32,61],[-408,-351],[-111,37],[-13,-34],[-109,-366],[-100,3],[-56,-34]]],"transform":{"scale":[0.0007114271039745954,0.0007000225684978029],"translate":[2.692612538038247,4.270203986225056]},"objects":{"nigeria_states":{"type":"GeometryCollection","geometries":[{"arcs":[[0,1,2,3,4]],"type":"Polygon","properties":{"state_name":"Cross River"}},{"arcs":[[5,6,7,8]],"type":"Polygon","properties":{"state_name":"Abuja Federal Capital Territory"}},{"arcs":[[9,10,11,12,13,14]],"type":"Polygon","properties":{"state_name":"Ogun"}},{"arcs":[[-13,15,16,17]],"type":"Polygon","properties":{"state_name":"Oyo"}},{"arcs":[[18,19,20]],"type":"Polygon","properties":{"state_name":"Sokoto"}},{"arcs":[[-20,21,22,23,24,25]],"type":"Polygon","properties":{"state_name":"Zamfara"}},{"arcs":[[-11,26]],"type":"Polygon","properties":{"state_name":"Lagos"}},{"arcs":[[-1,27,28,29]],"type":"Polygon","properties":{"state_name":"Akwa Ibom"}},{"arcs":[[30,31,32]],"type":"Polygon","properties":{"state_name":"Bayelsa"}},{"arcs":[[-15,33,34,35,36,37,38]],"type":"Polygon","properties":{"state_name":"Ondo"}},{"arcs":[[-31,39,-38,40,41,42]],"type":"Polygon","properties":{"state_name":"Delta"}},{"arcs":[[-29,43,-32,-43,44,45,46]],"type":"Polygon","properties":{"state_name":"Rivers"}},{"arcs":[[-17,47,48,49,50,51]],"type":"Polygon","properties":{"state_name":"Kwara"}},{"arcs":[[-6,52,53,54,55,56,-36,57,-50,58]],"type":"Polygon","properties":{"state_name":"Kogi"}},{"arcs":[[-4,59,60,-54,61,62,63]],"type":"Polygon","properties":{"state_name":"Benue"}},{"arcs":[[64,65,66,67]],"type":"Polygon","properties":{"state_name":"Borno"}},{"arcs":[[-23,68,69,70,71]],"type":"Polygon","properties":{"state_name":"Katsina"}},{"arcs":[[72,73,74,75]],"type":"Polygon","properties":{"state_name":"Plateau"}},{"arcs":[[-37,-57,76,-41]],"type":"Polygon","properties":{"state_name":"Edo"}},{"arcs":[[-70,77,78,79,80]],"type":"Polygon","properties":{"state_name":"Jigawa"}},{"arcs":[[-42,-77,-56,81,82,83,-45]],"type":"Polygon","properties":{"state_name":"Anambra"}},{"arcs":[[-71,-81,84,85]],"type":"Polygon","properties":{"state_name":"Kano"}},{"arcs":[[-9,86,-73,87,-62,-53]],"type":"Polygon","properties":{"state_name":"Nasarawa"}},{"arcs":[[-21,-26,88,89]],"type":"Polygon","properties":{"state_name":"Kebbi"}},{"arcs":[[-46,-84,90]],"type":"Polygon","properties":{"state_name":"Imo"}},{"arcs":[[-65,91,92,93,94]],"type":"Polygon","properties":{"state_name":"Gombe"}},{"arcs":[[-68,95,96,-92]],"type":"Polygon","properties":{"state_name":"Adamawa"}},{"arcs":[[-66,-95,97,-79,98]],"type":"Polygon","properties":{"state_name":"Yobe"}},{"arcs":[[-2,-30,-47,-91,-83,99,100]],"type":"Polygon","properties":{"state_name":"Abia"}},{"arcs":[[-35,101,-51,-58]],"type":"Polygon","properties":{"state_name":"Ekiti"}},{"arcs":[[-14,-18,-52,-102,-34]],"type":"Polygon","properties":{"state_name":"Osun"}},{"arcs":[[-75,102,-85,-80,-98,-94,103]],"type":"Polygon","properties":{"state_name":"Bauchi"}},{"arcs":[[-7,-59,-49,104,-89,-25,105]],"type":"Polygon","properties":{"state_name":"Niger"}},{"arcs":[[-8,-106,-24,-72,-86,-103,-74,-87]],"type":"Polygon","properties":{"state_name":"Kaduna"}},{"arcs":[[-55,-61,106,-100,-82]],"type":"Polygon","properties":{"state_name":"Enugu"}},{"arcs":[[-63,-88,-76,-104,-93,-97,107]],"type":"Polygon","properties":{"state_name":"Taraba"}},{"arcs":[[-3,-101,-107,-60]],"type":"Polygon","properties":{"state_name":"Ebonyi"}}]}}}